
# Worst residual: 17.63 km
# MJD 61126.000000 (2026 Mar 27  0:00)
2024-051C = NORAD 59278 = Tiandu-1
1 59278U 24051C   26086.49919926  .00000000  00000-0  00000-0 0 29097
2 59278 047.1369 000.4178 4456121 206.2202 038.3064 00.09537668    08

# Worst residual: 18.08 km
# MJD 61127.000000 (2026 Mar 28  0:00)
2024-051C = NORAD 59278 = Tiandu-1
1 59278U 24051C   26087.49919926  .00000000  00000-0  00000-0 0 29098
2 59278 047.1244 000.3874 4481827 206.3104 072.0931 00.09510199    03

# Worst residual: 21.10 km
# MJD 61128.000000 (2026 Mar 29  0:00)
2024-051C = NORAD 59278 = Tiandu-1
1 59278U 24051C   26088.49919926  .00000000  00000-0  00000-0 0 29099
2 59278 047.1110 000.3530 4502402 206.6360 105.4807 00.09482352    06

# Worst residual: 17.45 km
# MJD 61129.000000 (2026 Mar 30  0:00)
2024-051C = NORAD 59278 = Tiandu-1
1 59278U 24051C   26089.49919926  .00000000  00000-0  00000-0 0 29090
2 59278 047.0943 000.3167 4514270 207.0127 138.7376 00.09465341    06

# Worst residual: 9.53 km
# MJD 61130.000000 (2026 Mar 31  0:00)
2024-051C = NORAD 59278 = Tiandu-1
1 59278U 24051C   26090.49919926  .00000000  00000-0  00000-0 0 29092
2 59278 047.0809 000.2787 4519644 207.3265 172.1119 00.09460342    03

# Worst residual: 1.82 km
# MJD 61131.000000 (2026 Apr  1  0:00)
2024-051C = NORAD 59278 = Tiandu-1
1 59278U 24051C   26091.49919926  .00000000  00000-0  00000-0 0 29093
2 59278 047.0792 000.2483 4520588 207.5160 205.7625 00.09460583    04

# Worst residual: 9.37 km
# MJD 61132.000000 (2026 Apr  2  0:00)
2024-051C = NORAD 59278 = Tiandu-1
1 59278U 24051C   26092.49919926  .00000000  00000-0  00000-0 0 29094
2 59278 047.0859 000.2342 4520516 207.5078 239.8210 00.09454177    01

# Worst residual: 20.53 km
# MJD 61133.000000 (2026 Apr  3  0:00)
2024-051C = NORAD 59278 = Tiandu-1
1 59278U 24051C   26093.49919926  .00000000  00000-0  00000-0 0 29095
2 59278 047.0875 000.2306 4526587 207.2074 274.3697 00.09416952    08

# Worst residual: 57.97 km
# MJD 61134.000000 (2026 Apr  4  0:00)
2024-051C = NORAD 59278 = Tiandu-1
1 59278U 24051C   26094.49919926  .00000000  00000-0  00000-0 0 29096
2 59278 047.0678 000.2037 4565677 206.5505 309.3701 00.09291543    06

# Worst residual: 171.53 km
# MJD 61135.000000 (2026 Apr  5  0:00)
2024-051C = NORAD 59278 = Tiandu-1
1 59278U 24051C   26095.49919926  .00000000  00000-0  00000-0 0 29097
2 59278 047.0495 000.0971 4715012 206.5905 343.5681 00.08962777    02

# Worst residual: 143.92 km
# MJD 61136.000000 (2026 Apr  6  0:00)
2024-051C = NORAD 59278 = Tiandu-1
1 59278U 24051C   26096.49919926  .00000000  00000-0  00000-0 0 29098
2 59278 047.0979 000.0812 4745622 209.4883 014.5179 00.08910262    09

# Worst residual: 72.78 km
# MJD 61137.000000 (2026 Apr  7  0:00)
2024-051C = NORAD 59278 = Tiandu-1
1 59278U 24051C   26097.49919926  .00000000  00000-0  00000-0 0 29099
2 59278 047.1146 000.1406 4580409 209.3036 048.9950 00.09291828    04

# Worst residual: 42.58 km
# MJD 61138.000000 (2026 Apr  8  0:00)
2024-051C = NORAD 59278 = Tiandu-1
1 59278U 24051C   26098.49919926  .00000000  00000-0  00000-0 0 29090
2 59278 047.0943 000.1423 4527180 208.3922 084.5632 00.09457578    06

# Worst residual: 21.19 km
# MJD 61139.000000 (2026 Apr  9  0:00)
2024-051C = NORAD 59278 = Tiandu-1
1 59278U 24051C   26099.49919926  .00000000  00000-0  00000-0 0 29091
2 59278 047.0693 000.1178 4511371 208.0141 119.5689 00.09502777    03

# Worst residual: 15.09 km
# MJD 61140.000000 (2026 Apr 10  0:00)
2024-051C = NORAD 59278 = Tiandu-1
1 59278U 24051C   26100.49919926  .00000000  00000-0  00000-0 0 29094
2 59278 047.0426 000.0824 4498566 207.8862 154.2116 00.09506560    06

# Worst residual: 17.45 km
# MJD 61141.000000 (2026 Apr 11  0:00)
2024-051C = NORAD 59278 = Tiandu-1
1 59278U 24051C   26101.49919926  .00000000  00000-0  00000-0 0 29095
2 59278 047.0119 000.0362 4480888 207.7792 188.7604 00.09491318    09

# Worst residual: 24.92 km
# MJD 61142.000000 (2026 Apr 12  0:00)
2024-051C = NORAD 59278 = Tiandu-1
1 59278U 24051C   26102.49919926  .00000000  00000-0  00000-0 0 29096
2 59278 046.9839 359.9829 4460993 207.4893 223.5047 00.09458464    08

# Worst residual: 35.29 km
# MJD 61143.000000 (2026 Apr 13  0:00)
2024-051C = NORAD 59278 = Tiandu-1
1 59278U 24051C   26103.49919926  .00000000  00000-0  00000-0 0 29097
2 59278 046.9661 359.9379 4447886 206.8300 258.6406 00.09389844    06

# Worst residual: 58.65 km
# MJD 61144.000000 (2026 Apr 14  0:00)
2024-051C = NORAD 59278 = Tiandu-1
1 59278U 24051C   26104.49919926  .00000000  00000-0  00000-0 0 29098
2 59278 046.9492 359.9128 4470018 205.6080 294.2976 00.09233741    07

# Worst residual: 129.56 km
# MJD 61145.000000 (2026 Apr 15  0:00)
2024-051C = NORAD 59278 = Tiandu-1
1 59278U 24051C   26105.49919926  .00000000  00000-0  00000-0 0 29099
2 59278 046.9025 359.8817 4610561 204.2321 329.8176 00.08852002    08

# Worst residual: 278.21 km
# MJD 61146.000000 (2026 Apr 16  0:00)
2024-051C = NORAD 59278 = Tiandu-1
1 59278U 24051C   26106.49919926  .00000000  00000-0  00000-0 0 29090
2 59278 046.8686 359.7871 4802825 206.9823 000.6180 00.08492804    00

# Worst residual: 112.07 km
# MJD 61147.000000 (2026 Apr 17  0:00)
2024-051C = NORAD 59278 = Tiandu-1
1 59278U 24051C   26107.49919926  .00000000  00000-0  00000-0 0 29091
2 59278 046.9300 359.8411 4587890 209.1661 032.1995 00.08977887    05

# Worst residual: 69.49 km
# MJD 61148.000000 (2026 Apr 18  0:00)
2024-051C = NORAD 59278 = Tiandu-1
1 59278U 24051C   26108.49919926  .00000000  00000-0  00000-0 0 29092
2 59278 046.9291 359.8818 4462976 207.9382 067.8425 00.09314906    09

# Worst residual: 42.15 km
# MJD 61149.000000 (2026 Apr 19  0:00)
2024-051C = NORAD 59278 = Tiandu-1
1 59278U 24051C   26109.49919926  .00000000  00000-0  00000-0 0 29093
2 59278 046.9076 359.8768 4430104 207.0838 103.3294 00.09429986    04

# Worst residual: 24.50 km
# MJD 61150.000000 (2026 Apr 20  0:00)
2024-051C = NORAD 59278 = Tiandu-1
1 59278U 24051C   26110.49919926  .00000000  00000-0  00000-0 0 29095
2 59278 046.9114 359.8505 4420666 206.6270 138.3847 00.09468937    04

# Worst residual: 14.92 km
# MJD 61151.000000 (2026 Apr 21  0:00)
2024-051C = NORAD 59278 = Tiandu-1
1 59278U 24051C   26111.49919926  .00000000  00000-0  00000-0 0 29096
2 59278 046.9280 359.8293 4421636 206.3587 173.1283 00.09481847    04

# Worst residual: 10.84 km
# MJD 61152.000000 (2026 Apr 22  0:00)
2024-051C = NORAD 59278 = Tiandu-1
1 59278U 24051C   26112.49919926  .00000000  00000-0  00000-0 0 29097
2 59278 046.9418 359.8144 4426194 206.1953 207.6654 00.09482460    08

# Worst residual: 15.34 km
# MJD 61153.000000 (2026 Apr 23  0:00)
2024-051C = NORAD 59278 = Tiandu-1
1 59278U 24051C   26113.49919926  .00000000  00000-0  00000-0 0 29098
2 59278 046.9434 359.7936 4429764 205.9998 242.2241 00.09467762    01
